H1 CPF 01  gfz 2022 09 28 00  7711 tandemx   
H2 1003001  6202 36605    2022 09 28 00 59 42 2022 10 03 00 00 42   120 1 1  0 0 0
H9
10 0 59853  25902.000000  0    1480692.612    451783.656   6701353.500
10 0 59853  26022.000000  0    2315789.270    137172.606   6475355.569
10 0 59853  26142.000000  0    3104818.002   -194046.175   6135537.972
10 0 59853  26262.000000  0    3833759.423   -535161.784   5687841.843
10 0 59853  26382.000000  0    4489752.739   -879051.082   5140103.493
10 0 59853  26502.000000  0    5061328.145  -1218325.175   4501923.560
10 0 59853  26622.000000  0    5538615.282  -1545485.030   3784503.754
10 0 59853  26742.000000  0    5913522.873  -1853083.904   3000453.233
10 0 59853  26862.000000  0    6179885.251  -2133892.889   2163567.064
10 0 59853  26982.000000  0    6333571.294  -2381065.246   1288580.869
10 0 59853  27102.000000  0    6372553.996  -2588295.481    390906.052
10 0 59853  27222.000000  0    6296937.343  -2749969.444   -513649.776
10 0 59853  27342.000000  0    6108940.472  -2861300.888  -1409170.275
10 0 59853  27462.000000  0    5812837.577  -2918451.407  -2279919.738
10 0 59853  27582.000000  0    5414857.201  -2918630.139  -3110626.023
10 0 59853  27702.000000  0    4923044.404  -2860171.237  -3886752.322
10 0 59853  27822.000000  0    4347089.658  -2742588.477  -4594751.947
10 0 59853  27942.000000  0    3698128.179  -2566605.174  -5222302.415
10 0 59853  28062.000000  0    2988515.085  -2334158.590  -5758512.357
10 0 59853  28182.000000  0    2231585.099  -2048380.519  -6194099.684
10 0 59853  28302.000000  0    1441400.180  -1713554.868  -6521542.717
10 0 59853  28422.000000  0     632487.259  -1335051.255  -6735199.641
10 0 59853  28542.000000  0    -180425.973   -919238.317  -6831395.031
10 0 59853  28662.000000  0    -982673.771   -473377.679  -6808475.557
10 0 59853  28782.000000  0   -1759910.524     -5500.041  -6666835.358
10 0 59853  28902.000000  0   -2498361.496    475736.051  -6408909.176
10 0 59853  29022.000000  0   -3185061.107    961199.687  -6039134.789
10 0 59853  29142.000000  0   -3808077.296   1441456.078  -5563885.744
10 0 59853  29262.000000  0   -4356720.256   1906945.366  -4991373.015
10 0 59853  29382.000000  0   -4821730.550   2348170.484  -4331514.944
10 0 59853  29502.000000  0   -5195442.281   2755889.482  -3595775.275
10 0 59853  29622.000000  0   -5471918.026   3121307.420  -2796973.109
10 0 59853  29742.000000  0   -5647053.773   3436265.675  -1949065.952
10 0 59853  29862.000000  0   -5718649.068   3693423.734  -1066907.715
10 0 59853  29982.000000  0   -5686439.827   3886427.617   -165986.116
10 0 59853  30102.000000  0   -5552093.077   4010061.565    737854.621
10 0 59853  30222.000000  0   -5319161.924   4060377.824   1628701.831
10 0 59853  30342.000000  0   -4993000.715   4034800.357   2490863.807
10 0 59853  30462.000000  0   -4580644.850   3932201.223   3309154.033
10 0 59853  30582.000000  0   -4090657.918   3752947.606   4069166.365
10 0 59853  30702.000000  0   -3532949.416   3498916.667   4757533.066
10 0 59853  30822.000000  0   -2918569.094   3173480.440   5362161.579
10 0 59853  30942.000000  0   -2259481.543   2781460.079   5872445.753
10 0 59853  31062.000000  0   -1568327.832   2329051.170   6279448.236
10 0 59853  31182.000000  0    -858178.158   1823721.539   6576050.954
10 0 59853  31302.000000  0    -142283.454   1274084.822   6757071.794
10 0 59853  31422.000000  0     566171.498    689751.737   6819350.356
10 0 59853  31542.000000  0    1254310.425     81161.668   6761799.184
10 0 59853  31662.000000  0    1909798.385   -540603.035   6585421.809
10 0 59853  31782.000000  0    2521062.287  -1164018.454   6293296.995
10 0 59853  31902.000000  0    3077495.918  -1777331.761   5890529.036
10 0 59853  32022.000000  0    3569647.031  -2368783.135   5384164.169
10 0 59853  32142.000000  0    3989381.788  -2926832.060   4783072.779
10 0 59853  32262.000000  0    4330024.143  -3440384.842   4097799.841
10 0 59853  32382.000000  0    4586467.423  -3899018.918   3340383.935
10 0 59853  32502.000000  0    4755255.891  -4293198.627   2524147.305
10 0 59853  32622.000000  0    4834633.545  -4614476.736   1663459.215
10 0 59853  32742.000000  0    4824557.684  -4855676.811    773478.335
10 0 59853  32862.000000  0    4726677.651  -5011052.743   -130120.938
10 0 59853  32982.000000  0    4544279.091  -5076420.129  -1031432.522
10 0 59853  33102.000000  0    4282195.910  -5049256.464  -1914607.870
10 0 59853  33222.000000  0    3946690.199  -4928767.249  -2764142.568
10 0 59853  33342.000000  0    3545305.077  -4715916.844  -3565154.236
10 0 59853  33462.000000  0    3086694.033  -4413423.928  -4303645.381
10 0 59853  33582.000000  0    2580432.032  -4025722.381  -4966747.321
10 0 59853  33702.000000  0    2036812.086  -3558887.779  -5542938.808
10 0 59853  33822.000000  0    1466634.588  -3020534.609  -6022236.036
10 0 59853  33942.000000  0     880993.077  -2419687.119  -6396355.421
10 0 59853  34062.000000  0     291059.345  -1766624.049  -6658846.574
10 0 59853  34182.000000  0    -292126.779  -1072700.620  -6805192.659
10 0 59853  34302.000000  0    -857858.805   -350152.230  -6832878.946
10 0 59853  34422.000000  0   -1395954.965    388117.027  -6741430.778
10 0 59853  34542.000000  0   -1896937.326   1128758.746  -6532420.238
10 0 59853  34662.000000  0   -2352194.650   1858215.478  -6209442.053
10 0 59853  34782.000000  0   -2754128.119   2562962.662  -5778058.961
10 0 59853  34902.000000  0   -3096278.498   3229755.873  -5245716.578
10 0 59853  35022.000000  0   -3373432.441   3845879.115  -4621626.945
10 0 59853  35142.000000  0   -3581706.233   4399389.770  -3916619.865
10 0 59853  35262.000000  0   -3718602.957   4879354.188  -3142963.310
10 0 59853  35382.000000  0   -3783042.338   5276068.764  -2314157.386
10 0 59853  35502.000000  0   -3775364.423   5581263.327  -1444703.632
10 0 59853  35622.000000  0   -3697304.511   5788281.759   -549851.363
10 0 59853  35742.000000  0   -3551938.560   5892231.899    354674.414
10 0 59853  35862.000000  0   -3343602.634   5890101.912   1252955.673
10 0 59853  35982.000000  0   -3077784.857   5780840.262   2129171.836
10 0 59853  36102.000000  0   -2760992.414   5565394.325   2967888.970
10 0 59853  36222.000000  0   -2400599.143   5246707.040   3754339.072
10 0 59853  36342.000000  0   -2004678.067   4829674.478   4474684.947
10 0 59853  36462.000000  0   -1581822.732   4321064.816   5116266.134
10 0 59853  36582.000000  0   -1140961.147   3729401.087   5667821.848
10 0 59853  36702.000000  0    -691167.408   3064809.647   6119685.255
10 0 59853  36822.000000  0    -241475.678   2338839.203   6463947.516
10 0 59853  36942.000000  0     199299.947   1564255.256   6694589.797
10 0 59853  37062.000000  0     622737.329    754812.261   6807583.435
10 0 59853  37182.000000  0    1020966.202    -74991.872   6800954.816
10 0 59853  37302.000000  0    1386813.397   -910174.294   6674818.312
10 0 59853  37422.000000  0    1713931.788  -1735537.541   6431374.999
10 0 59853  37542.000000  0    1996910.806  -2535945.474   6074877.103
10 0 59853  37662.000000  0    2231366.912  -3296602.220   5611558.721
10 0 59853  37782.000000  0    2414012.521  -4003328.505   5049531.948
10 0 59853  37902.000000  0    2542701.568  -4642829.774   4398650.313
10 0 59853  38022.000000  0    2616452.595  -5202952.723   3670341.229
10 0 59853  38142.000000  0    2635447.474  -5672924.200   2877407.561
10 0 59853  38262.000000  0    2601004.700  -6043567.337   2033802.421
10 0 59853  38382.000000  0    2515528.480  -6307487.359   1154379.760
10 0 59853  38502.000000  0    2382435.325  -6459223.849    254628.503
10 0 59853  38622.000000  0    2206059.850  -6495367.989   -649607.336
10 0 59853  38742.000000  0    1991540.849  -6414637.691  -1542418.255
10 0 59853  38862.000000  0    1744689.804  -6217908.212  -2408117.939
10 0 59853  38982.000000  0    1471847.029  -5908200.893  -3231526.324
10 0 59853  39102.000000  0    1179728.833  -5490625.027  -3998239.811
10 0 59853  39222.000000  0     875271.880  -4972282.007  -4694882.363
10 0 59853  39342.000000  0     565476.068  -4362132.365  -5309334.884
10 0 59853  39462.000000  0     257250.473  -3670829.952  -5830938.725
10 0 59853  39582.000000  0     -42734.408  -2910526.649  -6250670.760
10 0 59853  39702.000000  0    -328184.965  -2094652.905  -6561287.937
10 0 59853  39822.000000  0    -593311.065  -1237678.508  -6757440.829
10 0 59853  39942.000000  0    -832938.586   -354857.860  -6835756.604
10 0 59853  40062.000000  0   -1042606.420    538037.537  -6794890.297
10 0 59853  40182.000000  0   -1218647.137   1424993.564  -6635544.392
10 0 59853  40302.000000  0   -1358249.677   2290033.316  -6360457.914
10 0 59853  40422.000000  0   -1459503.405   3117497.675  -5974365.352
10 0 59853  40542.000000  0   -1521423.701   3892325.588  -5483924.781
10 0 59853  40662.000000  0   -1543957.572   4600327.365  -4897613.837
10 0 59853  40782.000000  0   -1527970.047   5228448.369  -4225595.004
10 0 59853  40902.000000  0   -1475210.769   5765016.710  -3479548.993
10 0 59853  41022.000000  0   -1388260.748   6199968.839  -2672479.422
10 0 59853  41142.000000  0   -1270460.771   6525049.501  -1818492.042
10 0 59853  41262.000000  0   -1125822.516   6733980.670   -932549.212
10 0 59853  41382.000000  0    -958924.389   6822593.285    -30206.235
10 0 59853  41502.000000  0    -774794.053   6788920.631    872667.027
10 0 59853  41622.000000  0    -578780.691   6633247.280   1760175.084
10 0 59853  41742.000000  0    -376420.534   6358109.571   2616687.245
10 0 59853  41862.000000  0    -173299.348   5968250.457   3427120.091
10 0 59853  41982.000000  0      25084.439   5470532.496   4177208.252
10 0 59853  42102.000000  0     213452.793   4873811.299   4853761.877
10 0 59853  42222.000000  0     386875.353   4188763.275   5444901.205
10 0 59853  42342.000000  0     540886.306   3427685.420   5940259.211
99
